[{"OBJECT_NAME":"GPS BIIF-4","OBJECT_ID":"2013-023A","EPOCH":"2026-03-01T23:44:03.785280","MEAN_MOTION":2.00564153,"ECCENTRICITY":0.01415529,"INCLINATION":54.5878,"RA_OF_ASC_NODE":273.3391,"ARG_OF_PERICENTER":49.8819,"MEAN_ANOMALY":311.3944,"EPHEMERIS_TYPE":0,"CLASSIFICATION_TYPE":"U","NORAD_CAT_ID":39166,"ELEMENT_SET_NO":999,"REV_AT_EPOCH":9373,"BSTAR":0,"MEAN_MOTION_DOT":6.0e-8,"MEAN_MOTION_DDOT":0},{"OBJECT_NAME":"INSAT-3D","OBJECT_ID":"2013-038B","EPOCH":"2026-03-02T14:18:38.856384","MEAN_MOTION":1.00269239,"ECCENTRICITY":0.0002164,"INCLINATION":1.6508,"RA_OF_ASC_NODE":83.9377,"ARG_OF_PERICENTER":236.3244,"MEAN_ANOMALY":184.2293,"EPHEMERIS_TYPE":0,"CLASSIFICATION_TYPE":"U","NORAD_CAT_ID":39216,"ELEMENT_SET_NO":999,"REV_AT_EPOCH":4601,"BSTAR":0,"MEAN_MOTION_DOT":-3.56e-6,"MEAN_MOTION_DDOT":0},{"OBJECT_NAME":"GPS BIIF-5","OBJECT_ID":"2014-008A","EPOCH":"2026-03-02T11:39:40.334400","MEAN_MOTION":2.00552925,"ECCENTRICITY":0.0082226,"INCLINATION":53.6376,"RA_OF_ASC_NODE":153.6733,"ARG_OF_PERICENTER":228.2234,"MEAN_ANOMALY":131.0919,"EPHEMERIS_TYPE":0,"CLASSIFICATION_TYPE":"U","NORAD_CAT_ID":39533,"ELEMENT_SET_NO":999,"REV_AT_EPOCH":8754,"BSTAR":0,"MEAN_MOTION_DOT":-1.3e-7,"MEAN_MOTION_DDOT":0},{"OBJECT_NAME":"LUCH 5V","OBJECT_ID":"2014-023A","EPOCH":"2026-03-02T21:40:13.094112","MEAN_MOTION":1.00272214,"ECCENTRICITY":0.0002944,"INCLINATION":4.871,"RA_OF_ASC_NODE":70.7871,"ARG_OF_PERICENTER":275.0606,"MEAN_ANOMALY":234.6092,"EPHEMERIS_TYPE":0,"CLASSIFICATION_TYPE":"U","NORAD_CAT_ID":39727,"ELEMENT_SET_NO":999,"REV_AT_EPOCH":4329,"BSTAR":0,"MEAN_MOTION_DOT":-2.82e-6,"MEAN_MOTION_DDOT":0},{"OBJECT_NAME":"GPS BIIF-6","OBJECT_ID":"2014-026A","EPOCH":"2026-03-01T18:24:25.876224","MEAN_MOTION":2.0056878,"ECCENTRICITY":0.00399027,"INCLINATION":56.5477,"RA_OF_ASC_NODE":335.7023,"ARG_OF_PERICENTER":324.3529,"MEAN_ANOMALY":35.4088,"EPHEMERIS_TYPE":0,"CLASSIFICATION_TYPE":"U","NORAD_CAT_ID":39741,"ELEMENT_SET_NO":999,"REV_AT_EPOCH":8638,"BSTAR":0,"MEAN_MOTION_DOT":-9.6e-7,"MEAN_MOTION_DDOT":0},{"OBJECT_NAME":"GPS BIIF-7","OBJECT_ID":"2014-045A","EPOCH":"2026-03-01T20:30:10.788192","MEAN_MOTION":2.00551299,"ECCENTRICITY":0.00315441,"INCLINATION":55.2794,"RA_OF_ASC_NODE":92.74,"ARG_OF_PERICENTER":120.5166,"MEAN_ANOMALY":239.8682,"EPHEMERIS_TYPE":0,"CLASSIFICATION_TYPE":"U","NORAD_CAT_ID":40105,"ELEMENT_SET_NO":999,"REV_AT_EPOCH":8392,"BSTAR":0,"MEAN_MOTION_DOT":2.0e-7,"MEAN_MOTION_DDOT":0},{"OBJECT_NAME":"GSAT0201 (GALILEO 5)","OBJECT_ID":"2014-050A","EPOCH":"2026-02-28T13:00:15.357024","MEAN_MOTION":1.85519933,"ECCENTRICITY":0.16571229,"INCLINATION":48.9916,"RA_OF_ASC_NODE":277.8823,"ARG_OF_PERICENTER":175.1843,"MEAN_ANOMALY":186.6547,"EPHEMERIS_TYPE":0,"CLASSIFICATION_TYPE":"U","NORAD_CAT_ID":40128,"ELEMENT_SET_NO":999,"REV_AT_EPOCH":7630,"BSTAR":0,"MEAN_MOTION_DOT":0,"MEAN_MOTION_DDOT":0},{"OBJECT_NAME":"GSAT0202 (GALILEO 6)","OBJECT_ID":"2014-050B","EPOCH":"2026-02-27T04:20:23.841600","MEAN_MOTION":1.85520639,"ECCENTRICITY":0.16578902,"INCLINATION":49.0095,"RA_OF_ASC_NODE":277.0224,"ARG_OF_PERICENTER":175.8719,"MEAN_ANOMALY":185.7122,"EPHEMERIS_TYPE":0,"CLASSIFICATION_TYPE":"U","NORAD_CAT_ID":40129,"ELEMENT_SET_NO":999,"REV_AT_EPOCH":7844,"BSTAR":0,"MEAN_MOTION_DOT":1.2e-7,"MEAN_MOTION_DDOT":0},{"OBJECT_NAME":"GPS BIIF-8","OBJECT_ID":"2014-068A","EPOCH":"2026-03-02T05:32:55.414752","MEAN_MOTION":2.00569663,"ECCENTRICITY":0.0062709,"INCLINATION":56.918,"RA_OF_ASC_NODE":35.0755,"ARG_OF_PERICENTER":68.0408,"MEAN_ANOMALY":292.6148,"EPHEMERIS_TYPE":0,"CLASSIFICATION_TYPE":"U","NORAD_CAT_ID":40294,"ELEMENT_SET_NO":999,"REV_AT_EPOCH":8306,"BSTAR":0,"MEAN_MOTION_DOT":-6.9e-7,"MEAN_MOTION_DDOT":0},{"OBJECT_NAME":"GLONASS-K 2","OBJECT_ID":"2014-075A","EPOCH":"2026-03-01T20:09:56.477664","MEAN_MOTION":2.13101099,"ECCENTRICITY":0.00207353,"INCLINATION":63.617,"RA_OF_ASC_NODE":194.0851,"ARG_OF_PERICENTER":205.716,"MEAN_ANOMALY":154.1408,"EPHEMERIS_TYPE":0,"CLASSIFICATION_TYPE":"U","NORAD_CAT_ID":40315,"ELEMENT_SET_NO":999,"REV_AT_EPOCH":8756,"BSTAR":0,"MEAN_MOTION_DOT":-1.5e-7,"MEAN_MOTION_DDOT":0},{"OBJECT_NAME":"GPS BIIF-9","OBJECT_ID":"2015-013A","EPOCH":"2026-03-02T08:41:54.930048","MEAN_MOTION":2.00557677,"ECCENTRICITY":0.0108729,"INCLINATION":53.1867,"RA_OF_ASC_NODE":208.5939,"ARG_OF_PERICENTER":39.7757,"MEAN_ANOMALY":320.9603,"EPHEMERIS_TYPE":0,"CLASSIFICATION_TYPE":"U","NORAD_CAT_ID":40534,"ELEMENT_SET_NO":999,"REV_AT_EPOCH":7968,"BSTAR":0,"MEAN_MOTION_DOT":-1.5e-7,"MEAN_MOTION_DDOT":0},{"OBJECT_NAME":"GSAT0203 (GALILEO 7)","OBJECT_ID":"2015-017A","EPOCH":"2026-02-27T12:31:05.039904","MEAN_MOTION":1.70475495,"ECCENTRICITY":0.00051612,"INCLINATION":56.8234,"RA_OF_ASC_NODE":344.5881,"ARG_OF_PERICENTER":295.0116,"MEAN_ANOMALY":64.9415,"EPHEMERIS_TYPE":0,"CLASSIFICATION_TYPE":"U","NORAD_CAT_ID":40544,"ELEMENT_SET_NO":999,"REV_AT_EPOCH":6733,"BSTAR":0,"MEAN_MOTION_DOT":-1.03e-6,"MEAN_MOTION_DDOT":0},{"OBJECT_NAME":"GSAT0204 (GALILEO 8)","OBJECT_ID":"2015-017B","EPOCH":"2026-02-27T04:34:27.961824","MEAN_MOTION":1.7047537,"ECCENTRICITY":0.00043897,"INCLINATION":56.8295,"RA_OF_ASC_NODE":344.6151,"ARG_OF_PERICENTER":286.3298,"MEAN_ANOMALY":73.6287,"EPHEMERIS_TYPE":0,"CLASSIFICATION_TYPE":"U","NORAD_CAT_ID":40545,"ELEMENT_SET_NO":999,"REV_AT_EPOCH":3037,"BSTAR":0,"MEAN_MOTION_DOT":-1.02e-6,"MEAN_MOTION_DDOT":0},{"OBJECT_NAME":"GPS BIIF-10","OBJECT_ID":"2015-033A","EPOCH":"2026-03-02T12:33:09.231264","MEAN_MOTION":2.00561632,"ECCENTRICITY":0.01144532,"INCLINATION":54.0659,"RA_OF_ASC_NODE":271.4826,"ARG_OF_PERICENTER":28.9403,"MEAN_ANOMALY":331.7281,"EPHEMERIS_TYPE":0,"CLASSIFICATION_TYPE":"U","NORAD_CAT_ID":40730,"ELEMENT_SET_NO":999,"REV_AT_EPOCH":7785,"BSTAR":0,"MEAN_MOTION_DOT":1.0e-8,"MEAN_MOTION_DDOT":0},{"OBJECT_NAME":"METEOSAT-11 (MSG-4)","OBJECT_ID":"2015-034A","EPOCH":"2026-03-02T17:34:59.054016","MEAN_MOTION":1.00265571,"ECCENTRICITY":0.0001801,"INCLINATION":2.9333,"RA_OF_ASC_NODE":71.6917,"ARG_OF_PERICENTER":270.6717,"MEAN_ANOMALY":91.3181,"EPHEMERIS_TYPE":0,"CLASSIFICATION_TYPE":"U","NORAD_CAT_ID":40732,"ELEMENT_SET_NO":999,"REV_AT_EPOCH":615,"BSTAR":0,"MEAN_MOTION_DOT":4.6e-7,"MEAN_MOTION_DDOT":0},{"OBJECT_NAME":"GSAT0205 (GALILEO 9)","OBJECT_ID":"2015-045A","EPOCH":"2026-02-12T22:54:15.154848","MEAN_MOTION":1.674108,"ECCENTRICITY":0.03595998,"INCLINATION":53.6403,"RA_OF_ASC_NODE":225.6057,"ARG_OF_PERICENTER":59.9658,"MEAN_ANOMALY":303.5577,"EPHEMERIS_TYPE":0,"CLASSIFICATION_TYPE":"U","NORAD_CAT_ID":40889,"ELEMENT_SET_NO":999,"REV_AT_EPOCH":6421,"BSTAR":0,"MEAN_MOTION_DOT":7.8e-7,"MEAN_MOTION_DDOT":0},{"OBJECT_NAME":"GSAT0206 (GALILEO 10)","OBJECT_ID":"2015-045B","EPOCH":"2026-03-02T02:41:49.553376","MEAN_MOTION":1.70473619,"ECCENTRICITY":0.0003844,"INCLINATION":54.9813,"RA_OF_ASC_NODE":224.5577,"ARG_OF_PERICENTER":49.8147,"MEAN_ANOMALY":310.1636,"EPHEMERIS_TYPE":0,"CLASSIFICATION_TYPE":"U","NORAD_CAT_ID":40890,"ELEMENT_SET_NO":999,"REV_AT_EPOCH":6521,"BSTAR":0,"MEAN_MOTION_DOT":1.2e-7,"MEAN_MOTION_DDOT":0}]
