NAVSTAR 68 (USA 242)    
1 39166U 13023A   26060.98893270  .00000006  00000+0  00000+0 0  9998
2 39166  54.5878 273.3391 0141552  49.8819 311.3944  2.00564153 93732
INSAT-3D                
1 39216U 13038B   26061.59628306 -.00000356  00000+0  00000+0 0  9993
2 39216   1.6508  83.9377 0002164 236.3244 184.2293  1.00269239 46019
NAVSTAR 69 (USA 248)    
1 39533U 14008A   26061.48588350 -.00000013  00000+0  00000+0 0  9995
2 39533  53.6376 153.6733 0082226 228.2234 131.0919  2.00552925 87544
LUCH-5V                 
1 39727U 14023A   26061.90292933 -.00000282  00000+0  00000+0 0  9991
2 39727   4.8710  70.7871 0002944 275.0606 234.6092  1.00272214 43298
NAVSTAR 70 (USA 251)    
1 39741U 14026A   26060.76696616 -.00000096  00000+0  00000+0 0  9992
2 39741  56.5477 335.7023 0039902 324.3529  35.4088  2.00568780 86383
NAVSTAR 71 (USA 256)    
1 40105U 14045A   26060.85429153  .00000020  00000+0  00000+0 0  9995
2 40105  55.2794  92.7400 0031544 120.5166 239.8682  2.00551299 83927
GSAT0201 (GALILEO 5)    
1 40128U 14050A   26059.54184441  .00000000  00000+0  00000+0 0  9996
2 40128  48.9916 277.8823 1657122 175.1843 186.6547  1.85519933 76301
GSAT0202 (GALILEO 6)    
1 40129U 14050B   26058.18083150  .00000012  00000+0  00000+0 0  9994
2 40129  49.0095 277.0224 1657890 175.8719 185.7122  1.85520639 78441
NAVSTAR 72 (USA 258)    
1 40294U 14068A   26061.23119693 -.00000069  00000+0  00000+0 0  9991
2 40294  56.9180  35.0755 0062709  68.0408 292.6148  2.00569663 83061
COSMOS 2501 [GLONASS-K] 
1 40315U 14075A   26060.84023701 -.00000015  00000+0  00000+0 0  9994
2 40315  63.6170 194.0851 0020735 205.7160 154.1408  2.13101099 87569
NAVSTAR 73 (USA 260)    
1 40534U 15013A   26061.36244132 -.00000015  00000+0  00000+0 0  9991
2 40534  53.1867 208.5939 0108729  39.7757 320.9603  2.00557677 79681
GSAT0203 (GALILEO 7)    
1 40544U 15017A   26058.52158611 -.00000103  00000+0  00000+0 0  9994
2 40544  56.8234 344.5881 0005161 295.0116  64.9415  1.70475495 67337
GSAT0204 (GALILEO 8)    
1 40545U 15017B   26058.19060141 -.00000102  00000+0  00000+0 0  9997
2 40545  56.8295 344.6151 0004389 286.3298  73.6287  1.70475370 30371
NAVSTAR 74 (USA 262)    
1 40730U 15033A   26061.52302351  .00000001  00000+0  00000+0 0  9991
2 40730  54.0659 271.4826 0114453  28.9403 331.7281  2.00561632 77856
METEOSAT-11 (MSG-4)     
1 40732U 15034A   26061.73262794  .00000046  00000+0  00000+0 0  9992
2 40732   2.9333  71.6917 0001801 270.6717  91.3181  1.00265571  6151
GSAT0205 (GALILEO 9)    
1 40889U 15045A   26043.95434207  .00000078  00000+0  00000+0 0  9996
2 40889  53.6403 225.6057 0359599  59.9658 303.5577  1.67410800 64211
GSAT0206 (GALILEO 10)   
1 40890U 15045B   26061.11237909  .00000012  00000+0  00000+0 0  9994
2 40890  54.9813 224.5577 0003844  49.8147 310.1636  1.70473619 65219
